STARLINK-36563          
1 67550U 26014U   26040.25002315 -.00036365  00000+0 -24390-3 0  9991
2 67550  97.2853 283.7675 0001276  99.3105 339.1164 15.75196660  4119
STARLINK-36566          
1 67551U 26014V   26040.25002315 -.01369417  00000+0 -98560-2 0  9999
2 67551  97.2851 283.7724 0001565  95.3863 354.4653 15.76201440  4118
STARLINK-36567          
1 67552U 26014W   26040.25002315 -.00002428  00000+0 -15408-4 0  9997
2 67552  97.2852 283.7501 0001650  99.4662 302.9593 15.75191700  4117
STARLINK-36569          
1 67553U 26014X   26040.16690290  .00192195  00000+0  97899-3 0  9995
2 67553  97.2751 283.6888 0001299  96.0888 264.0528 15.80887522  4076
STARLINK-36395          
1 67554U 26014Y   26040.25002315 -.00062407  00000+0 -42008-3 0  9997
2 67554  97.2857 283.7629 0001371 102.0831 332.3258 15.75217942  4116
STARLINK-36559          
1 67555U 26014Z   26040.25002315 -.00063502  00000+0 -42740-3 0  9998
2 67555  97.2856 283.7595 0001639 110.1744 316.2303 15.75223726  4117
MR-1                    
1 67556U 26015A   26040.15988682  .00000022  00000+0  15345-4 0  9997
2 67556  88.9979 281.5623 0005121  89.5863 270.5876 13.52686032  2403
MR-2                    
1 67557U 26015B   26040.16020861  .00000021  00000+0  12922-4 0  9992
2 67557  88.9978 281.5625 0005174  88.7359 271.4386 13.52660947  2407
ELECTRON R/B            
1 67558U 26015C   26040.25820141  .02003859 -89917-6  14971-2 0  9992
2 67558  88.9970 281.0444 0480198 204.7797 152.9697 15.22611868  2677
ELECTRON KICK STAGE R/B 
1 67559U 26015D   26040.22612308  .00066820  26216-6  11319-2 0  9994
2 67559  89.0513 281.2654 0531234 273.2276  80.8323 14.67526854  2616
STARLINK-36426          
1 67560U 26014AA  26040.22910151  .00255007  00000+0  12877-2 0  9995
2 67560  97.2855 283.7603 0001250  88.8348 271.3063 15.80915370  4081
STARLINK-36621          
1 67561U 26016A   26040.20756117  .00184150  00000+0  93820-3 0  9994
2 67561  97.2841  99.1962 0001366  99.8201 260.3221 15.80904097  2314
STARLINK-36398          
1 67562U 26016B   26040.25002315 -.00027102  00000+0 -18124-3 0  9993
2 67562  97.2809  99.2328 0001079  68.2986 157.4382 15.75212998  3453
STARLINK-36403          
1 67563U 26016C   26040.20533422  .00145028  00000+0  74298-3 0  9997
2 67563  97.2840  99.2002 0001249  94.8856 265.2555 15.80886367  2315
STARLINK-36593          
1 67564U 26016D   26040.20411073  .00156320  00000+0  79962-3 0  9995
2 67564  97.2840  99.2015 0001398  78.5485 281.5941 15.80889248  2313
STARLINK-35725          
1 67565U 26016E   26040.26649365  .00262723  00000+0  13246-2 0  9996
2 67565  97.2841  99.2693 0001116  94.5920 265.5475 15.80929237  2325
STARLINK-36394          
1 67566U 26016F   26040.25002315 -.00183630  00000+0 -97473-3 0  9990
2 67566  97.2784  99.2586 0001116  64.8258 224.0121 15.80894236  3573
STARLINK-36352          
1 67567U 26016G   26040.25002315 -.00106338  00000+0 -55978-3 0  9995
2 67567  97.2785  99.2554 0001051  85.5957 196.4674 15.80871611  3470
STARLINK-36435          
1 67568U 26016H   26040.25002315 -.00105343  00000+0 -55481-3 0  9990
2 67568  97.2784  99.2612 0001240  54.2212 240.6458 15.80858130  3475
STARLINK-36575          
1 67569U 26016J   26040.25002315 -.00108011  00000+0 -56915-3 0  9999
2 67569  97.2838  99.2663 0000887  88.8525 212.9008 15.80854879  3477
STARLINK-36562          
1 67570U 26016K   26040.25002315 -.00024062  00000+0 -12517-3 0  9994
2 67570  97.2842  99.2686 0001241  71.5624 235.3769 15.80826518  3475
STARLINK-36578          
1 67571U 26016L   26040.25002315 -.01957802  00000+0 -12978-1 0  9992
2 67571  97.2840  99.2696 0001605  88.4810 222.2951 15.78638591  3458
STARLINK-36350          
1 67572U 26016M   26040.25002315 -.00037165  00000+0 -19384-3 0  9993
2 67572  97.2779  99.2725 0000971  73.4927 246.7866 15.80847489  3368
STARLINK-36588          
1 67573U 26016N   26040.25002315 -.00853872  00000+0 -48429-2 0  9996
2 67573  97.2844  99.2764 0001016  73.5278 255.0781 15.81123019  3520
STARLINK-36594          
1 67574U 26016P   26040.25002315 -.00102107  00000+0 -53723-3 0  9999
2 67574  97.2843  99.2776 0001066  87.1158 246.6088 15.80871082  3521
STARLINK-36400          
1 67575U 26016Q   26040.25002315 -.00027535  00000+0 -14328-3 0  9999
2 67575  97.2768  99.2799 0001154  81.9843 257.3998 15.80844276  3416
STARLINK-36591          
1 67576U 26016R   26040.25002315 -.00007119  00000+0 -36431-4 0  9996
2 67576  97.2846  99.2830 0001079  88.6672 256.6197 15.80830923  3473
STARLINK-36590          
1 67577U 26016S   26040.25002315 -.00079224  00000+0 -41568-3 0  9999
2 67577  97.2757  99.2830 0001090  90.4039 260.2981 15.80866036  3472
STARLINK-36613          
1 67578U 26016T   26040.25002315 -.00147779  00000+0 -78132-3 0  9998
2 67578  97.2841  99.2864 0001474  57.8562 299.3697 15.80886476  3475
STARLINK-36571          
1 67579U 26016U   26040.25002315 -.00053312  00000+0 -27879-3 0  9990
2 67579  97.2842  99.2914 0000962  85.4673 280.2102 15.80855029  3474
STARLINK-36612          
1 67580U 26016V   26040.25002315 -.00057801  00000+0 -30250-3 0  9996
2 67580  97.2840  99.2935 0000754 108.5227 263.4195 15.80854825  3476
STARLINK-36632          
1 67581U 26016W   26040.25002315 -.00067621  00000+0 -35420-3 0  9992
2 67581  97.2840  99.3017 0001333  74.6501 315.2984 15.80866904  3474
STARLINK-36609          
1 67582U 26016X   26040.25002315 -.00004014  00000+0 -26068-4 0  9999
2 67582  97.2810  99.2984 0000925  83.1316 298.6438 15.75182518  3473
STARLINK-36577          
1 67583U 26016Y   26040.25002315 -.00087791  00000+0 -46086-3 0  9994
2 67583  97.2840  99.2964 0000890  84.4719 295.8566 15.80880782  3472
STARLINK-36419          
1 67584U 26016Z   26040.25002315 -.00036807  00000+0 -19190-3 0  9993
2 67584  97.2840  99.3065 0001383  94.9411 308.1072 15.80852417  3473
STARLINK-36560          
1 67585U 26016AA  26040.25002315  .00010086  00000+0  53309-4 0  9994
2 67585  97.2844  99.3114 0001582  78.8091 334.0529 15.80826178  3413
CZ-2C DEB               
1 67586U 26009C   26040.18801346  .00058707  00000+0  29066-2 0  9993
2 67586  97.2265 113.6421 0110951 135.6499 225.3688 15.12245035  3776
CZ-2C DEB               
1 67587U 26009D   26038.70444539  .00053878  00000+0  25925-2 0  9990
2 67587  97.6721 113.5437 0107672 146.2655 214.5490 15.13529194  3551
NAVSTAR 85 (USA 581)    
1 67588U 26017A   26039.06623429 -.00000041  00000+0  00000+0 0  9996
2 67588  55.0018  93.9373 0000861  74.4031 285.6686  2.00561476429022
STARLINK-36641          
1 67589U 26018A   26040.25002315 -.01702261  00000+0 -94589-2 0  9999
2 67589  97.2796 104.5747 0001690  69.2819   1.2616 15.82530795  2773
STARLINK-36376          
1 67590U 26018B   26040.25002315 -.01703662  00000+0 -93826-2 0  9990
2 67590  97.2794 104.5773 0001728  56.1104  19.3013 15.82721999  2821
STARLINK-36391          
1 67591U 26018C   26040.25002315 -.01657730  00000+0 -89977-2 0  9997
2 67591  97.2795 104.5800 0001665  60.6759  20.5040 15.82941539  2828
STARLINK-36603          
1 67592U 26018D   26040.25002315 -.01742230  00000+0 -94429-2 0  9996
2 67592  97.2793 104.5801 0001652  62.5242  22.5622 15.83136476  2782
STARLINK-36634          
1 67593U 26018E   26040.25002315 -.01741340  00000+0 -93270-2 0  9991
2 67593  97.2792 104.5829 0001555  73.3724  17.6951 15.83385411  2773
STARLINK-36638          
1 67594U 26018F   26040.25002315 -.01736111  00000+0 -91912-2 0  9993
2 67594  97.2792 104.5852 0001710  60.6154  36.1711 15.83617623  2772
STARLINK-36628          
1 67595U 26018G   26040.25002315 -.01736478  00000+0 -91175-2 0  9991
2 67595  97.2788 104.5867 0001691  69.3131  31.7034 15.83791688  2776
STARLINK-36629          
1 67596U 26018H   26040.25002315 -.01733701  00000+0 -90074-2 0  9995
2 67596  97.2788 104.5888 0001677  65.2033  41.0238 15.84007077  2773
STARLINK-36384          
1 67597U 26018J   26040.25002315 -.01728803  00000+0 -88814-2 0  9992
2 67597  97.2786 104.5910 0001685  61.8321  49.9338 15.84232315  2839
STARLINK-36358          
1 67598U 26018K   26040.25002315 -.01726888  00000+0 -88052-2 0  9998
2 67598  97.2784 104.5923 0001653  65.8978  49.6852 15.84385409  2829
STARLINK-36582          
1 67599U 26018L   26040.25002315 -.01721009  00000+0 -86684-2 0  9998
2 67599  97.2784 104.5951 0001506  67.3888  54.1229 15.84630796  2882
STARLINK-36640          
1 67600U 26018M   26040.25002315 -.01717561  00000+0 -84771-2 0  9994
2 67600  97.2783 104.5991 0001580  58.5442  72.9609 15.85043876  2785
STARLINK-36635          
1 67601U 26018N   26040.25002315 -.01714941  00000+0 -85610-2 0  9997
2 67601  97.2782 104.5967 0001526  62.5565  63.3514 15.84804335  2782
STARLINK-36631          
1 67602U 26018P   26040.25002315 -.01710568  00000+0 -83361-2 0  9990
2 67602  97.2779 104.6019 0001721  65.5000  72.0009 15.85290761  2770
STARLINK-36626          
1 67603U 26018Q   26040.25002315 -.01709522  00000+0 -80792-2 0  9994
2 67603  97.2772 104.6079 0001648  70.5012  82.1475 15.85920411  2778
STARLINK-36605          
1 67604U 26018R   26040.25002315 -.01701339  00000+0 -81006-2 0  9992
2 67604  97.2772 104.6057 0001648  70.2338  78.3942 15.85752553  2779
STARLINK-36281          
1 67605U 26018S   26040.25002315 -.01713561  00000+0 -82512-2 0  9996
2 67605  97.2773 104.6036 0001524  78.6132  64.8829 15.85545760  2825
STARLINK-35843          
1 67606U 26018T   26040.25002315 -.01697628  00000+0 -79411-2 0  9996
2 67606  97.2767 104.6093 0001621  67.8704  89.4806 15.86108567  2835
STARLINK-36351          
1 67607U 26018U   26040.25002315 -.01703951  00000+0 -79067-2 0  9991
2 67607  97.2769 104.6114 0001692  73.1735  88.3226 15.86283737  2831
STARLINK-36411          
1 67608U 26018V   26040.25002315 -.01701417  00000+0 -77898-2 0  9997
2 67608  97.2765 104.6139 0001522  74.4410  93.3685 15.86554663  2824
